*******************************************************************************
Ephemeris / WWW_USER Wed Mar 14 15:49:34 2018 Pasadena, USA      / Horizons    
*******************************************************************************
Target body name: Oberon (704)                    {source: ura111}
Center body name: Solar System Barycenter (0)     {source: DE431mx}
Center-site name: BODY CENTER
*******************************************************************************
Start time      : A.D. 2000-Jan-01 00:00:00.0000 TDB
Stop  time      : A.D. 2001-Jan-01 00:00:00.0000 TDB
Step-size       : 7200 minutes
*******************************************************************************
Center geodetic : 0.00000000,0.00000000,0.0000000 {E-lon(deg),Lat(deg),Alt(km)}
Center cylindric: 0.00000000,0.00000000,0.0000000 {E-lon(deg),Dxy(km),Dz(km)}
Center radii    : (undefined)                                                  
Output units    : AU-D                                                         
Output type     : GEOMETRIC cartesian states
Output format   : 2 (position and velocity)
Reference frame : ICRF/J2000.0                                                 
Coordinate systm: Ecliptic and Mean Equinox of Reference Epoch                 
*******************************************************************************
JDTDB
   X     Y     Z
   VX    VY    VZ
*******************************************************************************
$$SOE
2451754.500000000 = A.D. 2000-Jul-29 00:00:00.0000 TDB 
   1.497864514945565E+01 -1.316851630687735E+01 -2.435897428810318E-01
   2.221055557682769E-03  2.593840860457905E-03 -1.803786072571161E-03
2451759.500000000 = A.D. 2000-Aug-03 00:00:00.0000 TDB 
   1.498462030970551E+01 -1.315340539403424E+01 -2.453798282554784E-01
   1.543978521655209E-03  3.198878198286045E-03  1.417832929439530E-03
2451764.500000000 = A.D. 2000-Aug-08 00:00:00.0000 TDB 
   1.500112192696000E+01 -1.313946127564606E+01 -2.393433275214090E-01
   4.324443654336187E-03  2.363153512179650E-03 -2.355173805904136E-04
2451769.500000000 = A.D. 2000-Aug-13 00:00:00.0000 TDB 
   1.501569684320525E+01 -1.312692731991864E+01 -2.462812099454437E-01
   1.150906450474063E-03  2.921819499516521E-03 -1.166752479660571E-03
2451774.500000000 = A.D. 2000-Aug-18 00:00:00.0000 TDB 
   1.502236890708702E+01 -1.311123959811280E+01 -2.431253338921567E-01
   2.740482066306428E-03  2.995113211638751E-03  1.773592203426048E-03
2451779.500000000 = A.D. 2000-Aug-23 00:00:00.0000 TDB 
   1.504184741448158E+01 -1.309845887992644E+01 -2.409361882707956E-01
   3.707433555120628E-03  2.342792407657263E-03 -1.363558915837627E-03
2451784.500000000 = A.D. 2000-Aug-28 00:00:00.0000 TDB 
   1.505147943284222E+01 -1.308477152351265E+01 -2.474981729315072E-01
   7.770211337952156E-04  3.177996451902946E-03  3.037828266872614E-05
2451789.500000000 = A.D. 2000-Sep-02 00:00:00.0000 TDB 
   1.506185352335479E+01 -1.306938721260236E+01 -2.410056164016952E-01
   3.849618075984413E-03  2.685242611332512E-03  1.246519711987745E-03
2451794.500000000 = A.D. 2000-Sep-07 00:00:00.0000 TDB 
   1.508100518332941E+01 -1.305721398850882E+01 -2.438000047518527E-01
   2.522016974977815E-03  2.539987231541397E-03 -1.826274910672861E-03
2451799.500000000 = A.D. 2000-Sep-12 00:00:00.0000 TDB 
   1.508724611023421E+01 -1.304226052235270E+01 -2.468114512053019E-01
   1.273395376440837E-03  3.241463131683450E-03  1.200534990922660E-03
2451804.500000000 = A.D. 2000-Sep-17 00:00:00.0000 TDB 
   1.510250003003468E+01 -1.302789545726732E+01 -2.402307786336349E-01
   4.319386721002497E-03  2.424944742515587E-03  8.996441168623700E-05
2451809.500000000 = A.D. 2000-Sep-22 00:00:00.0000 TDB 
   1.511815889246507E+01 -1.301545600894966E+01 -2.466897068843480E-01
   1.350335497904942E-03  2.860022457940534E-03 -1.400382132903918E-03
2451814.500000000 = A.D. 2000-Sep-27 00:00:00.0000 TDB 
   1.512419719347646E+01 -1.299972707974901E+01 -2.447282863605594E-01
   2.395058910051330E-03  3.084072624443056E-03  1.769625032746618E-03
2451819.500000000 = A.D. 2000-Oct-02 00:00:00.0000 TDB 
   1.514307448244918E+01 -1.298657581279763E+01 -2.413573062770908E-01
   3.910909096828880E-03  2.347666820121702E-03 -1.119851507502674E-03
2451824.500000000 = A.D. 2000-Oct-07 00:00:00.0000 TDB 
   1.515378309992408E+01 -1.297311064048905E+01 -2.483503454124891E-01
   7.620409211034903E-04  3.149436533842199E-03 -2.966013220385609E-04
2451829.500000000 = A.D. 2000-Oct-12 00:00:00.0000 TDB 
   1.516289310270082E+01 -1.295746072186170E+01 -2.424311172716504E-01
   3.587328096914604E-03  2.786154297150654E-03  1.454873298638126E-03
2451834.500000000 = A.D. 2000-Oct-17 00:00:00.0000 TDB 
   1.518233439613698E+01 -1.294510303641238E+01 -2.439895204801043E-01
   2.823659854887745E-03  2.494110557530814E-03 -1.789876803158434E-03
2451839.500000000 = A.D. 2000-Oct-22 00:00:00.0000 TDB 
   1.518905030384721E+01 -1.293034034153997E+01 -2.481295137277907E-01
   1.045607841389046E-03  3.268784490113465E-03  9.425315608066208E-04
2451844.500000000 = A.D. 2000-Oct-27 00:00:00.0000 TDB 
   1.520296540504829E+01 -1.291556723768111E+01 -2.412281735955673E-01
   4.254421779913607E-03  2.499431684536472E-03  4.147216487183689E-04
2451849.500000000 = A.D. 2000-Nov-01 00:00:00.0000 TDB 
   1.521961197822329E+01 -1.290317325551599E+01 -2.470019304435831E-01
   1.585501561752846E-03  2.796494528361145E-03 -1.589963147668590E-03
2451854.500000000 = A.D. 2000-Nov-06 00:00:00.0000 TDB 
   1.522523849090225E+01 -1.288746092928224E+01 -2.462956814528955E-01
   2.057218301278800E-03  3.162536219868098E-03  1.704594336926503E-03
2451859.500000000 = A.D. 2000-Nov-11 00:00:00.0000 TDB 
   1.524330957873012E+01 -1.287391305986697E+01 -2.418656937231022E-01
   4.069396836963539E-03  2.367062985732586E-03 -8.410366440504759E-04
2451864.500000000 = A.D. 2000-Nov-16 00:00:00.0000 TDB 
   1.525515784853497E+01 -1.286065324302402E+01 -2.490669919072425E-01
   8.066392529376878E-04  3.109109075605339E-03 -6.138905939275838E-04
2451869.500000000 = A.D. 2000-Nov-21 00:00:00.0000 TDB 
   1.526311688724565E+01 -1.284479244100762E+01 -2.439266246669101E-01
   3.287233004611612E-03  2.888361484565485E-03  1.615929778754815E-03
2451874.500000000 = A.D. 2000-Nov-26 00:00:00.0000 TDB 
   1.528262739462782E+01 -1.283219689406844E+01 -2.442024766614523E-01
   3.113714285139191E-03  2.458342409635452E-03 -1.698406214149822E-03
2451879.500000000 = A.D. 2000-Dec-01 00:00:00.0000 TDB 
   1.529000905143165E+01 -1.281764747879551E+01 -2.493301798782178E-01
   8.695665927958350E-04  3.280246490330886E-03  6.533341175939798E-04
2451884.500000000 = A.D. 2000-Dec-06 00:00:00.0000 TDB 
   1.530254649474564E+01 -1.280249212282112E+01 -2.423423959154404E-01
   4.133913499871355E-03  2.583744579720134E-03  7.252078693941635E-04
2451889.500000000 = A.D. 2000-Dec-11 00:00:00.0000 TDB 
   1.532005013311140E+01 -1.279008997847169E+01 -2.472453124272565E-01
   1.852332667996026E-03  2.733442851966351E-03 -1.726175581788616E-03
2451894.500000000 = A.D. 2000-Dec-16 00:00:00.0000 TDB 
   1.532549609833664E+01 -1.277445049918758E+01 -2.478293576668104E-01
   1.730826578389474E-03  3.230119379999872E-03  1.581793402973725E-03
2451899.500000000 = A.D. 2000-Dec-21 00:00:00.0000 TDB 
   1.534258262588341E+01 -1.276048881120841E+01 -2.424849239122143E-01
   4.177438909833340E-03  2.400602584846239E-03 -5.382288503992932E-04
2451904.500000000 = A.D. 2000-Dec-26 00:00:00.0000 TDB 
   1.535558608397963E+01 -1.274740521012981E+01 -2.496573783754602E-01
   9.092438539083567E-04  3.059030732498304E-03 -9.096086269546970E-04
2451909.500000000 = A.D. 2000-Dec-31 00:00:00.0000 TDB 
   1.536254737614377E+01 -1.273139214314987E+01 -2.454676183356044E-01
   2.962024753330975E-03  2.988488113704949E-03  1.725249943785937E-03
